#dP2022  3 10  0  0  0.00000000      96 __u+U ITR00 FIT  IAC
## 2200 345600.00000000   900.00000000 59648 0.0000000000000
+  117   C06C07C08C09C10C11C12C13C14C16C19C20C21C22C23C24C25
+        C26C27C28C29C30C32C33C34C35C36C37C38C39C40C41C42C43
+        C44C45C46E01E02E03E04E05E07E08E09E10E11E12E13E14E15
+        E18E19E21E25E26E27E30E31E33E34E36G01G02G03G04G05G06
+        G07G08G09G10G11G12G13G14G15G16G17G18G19G20G21G22G23
+        G24G25G26G27G28G29G30G31G32J01J02J03R01R02R03R04R05
+        R07R08R09R11R12R13R14R15R17R18R19R20R21R22R24  0  0
++         8  8  8  8  7 10  9  7  8  8  7  7  8  8  7  6  7
++         7  8  5  8  6  6  5  7  7  8  6  7  7  7  5  6  5
++         8  7  6  6  5  7  6  6  5  6  7  7  5  6  6  8  6
++         6  6  6  7  6  5  4  7  6  5  5  4  5  7  6  6  5
++         5  6  6  5  5  6  6  5  6  6  6  6  7  5  6  4  5
++         5  6  6  6  6  6  5  5  5 10  8  8  7  6  6  6  6
++         7  6  6  6  6  7  7  6  6  5  7  7  8  7  7  0  0
%c M  cc GPS ccc cccc cccc cccc cccc ccccc ccccc ccccc ccccc
%c cc cc ccc ccc cccc cccc cccc cccc ccccc ccccc ccccc ccccc
%f  0.0000000  0.000000000  0.00000000000  0.000000000000000
%f  0.0000000  0.000000000  0.00000000000  0.000000000000000
%i    0    0    0    0      0      0      0      0         0
%i    0    0    0    0      0      0      0      0         0
/* INFORMATION & ANALYSIS CENTER (IAC)      ULTRA-RAPID DATA
/* S/V CLOCKS ARE ALIGNED TO GNSS TIME                      
/* G:C1WC2W R:C1PC2P E:C1XC5X C:C2IC6I J:C1CC2S             
/* PCV:IGS14_2196 OL/AL:FES2004  NONE     YN ORB:CoN CLK:CoN
*  2022 03 10  1 15  0.00000000
PC06 -15815.444099  24653.754758  30256.796605   -418.844775
PC07 -12354.047355  40328.851092   2263.668169    154.814737
PC08    210.639432  27826.620026 -31606.700672    186.236163
PC09  -3489.769649  24909.054557  34126.137498   -590.534390
PC10  -6816.142270  41621.113441  -4292.458761    139.078448
PC11  26087.136962  -8143.751636   5649.846826   -161.308739
PC12  25052.574628   3364.734994 -11779.617849    682.636703
PC13   7591.078285  32217.952801 -25839.822122    -94.358666
PC14  17098.795654 -14219.775699  16848.866769    451.681478
PC16 -17076.028285  24211.197162  30055.868823     98.866451
PC19 -14095.125089  22321.714172  -9043.585376    887.828038
PC20 -17300.143908   5970.839160 -21055.849876   -841.938672
PC21  10258.154360  15075.837450  21151.805902   -922.658697
PC22  -2669.551770  26407.496715   8667.855789   -960.012817
PC23  -6051.177657 -23007.616122 -14594.986903   -946.217196
PC24  21346.748256   6067.981596 -16918.032661   -945.862407
PC25   9888.472971 -13146.095783 -22554.006126   -768.201506
PC26  20042.499565  19210.393972  -2642.782893    768.354989
PC27 -18955.956817  -9331.952061  18200.912327    689.434978
PC28    497.268191 -16102.482258  22789.153621     41.630039
PC29 -19619.542808  14205.611090 -13857.334113    525.484185
PC30 -27426.871087   3457.586848   3704.436476    494.849487
PC32 -10348.181904 -15018.368524 -21098.496653   -970.362192
PC33  14038.022762 -22303.295497   9164.391435   -964.100783
PC34  27487.582376  -4052.108639  -2774.997783   -451.891966
PC35   -822.281920  16305.685714 -22634.419724    174.856498
PC36 -10623.935163  12469.783796  22607.917255   -935.371011
PC37 -19124.426230 -20281.751095   1553.412721   -944.894325
PC38  -7073.651024  24959.070213 -33165.544789    216.835387
PC39 -23258.941138  24034.901248  25582.505366     34.851870
PC40 -17905.819178  37960.764675   4795.243870    250.931600
PC41   2926.297492 -26502.988506  -8180.397680   -952.252400
PC42  17249.219801  -4805.802886  21446.838244   -936.582998
PC43  20223.624644 -13939.639271  13264.517010   -937.060039
PC44  19165.691664   8887.347571 -18261.915719    589.711327
PC45   6330.121285  22993.175201  14466.307514    700.587209
PC46 -20932.285775  -4810.097978  17834.199337   -209.292617
PE01  -8557.865386 -28069.191209   3923.364536   -593.769412
PE02   8662.442715  27995.137805  -4095.215771    285.226970
PE03   3676.157119  18416.569178  22882.575967   -535.737647
PE04 -19751.570327  -2937.522539 -21841.310209   -981.152626
PE05 -14862.037934  23354.266268  10486.343903   -201.859194
PE07  24503.511408 -14628.488816   7852.817513   -646.766399
PE08  19899.102428   2422.419901  21778.919683   -492.486217
PE09 -24386.949542  14938.588801  -7654.842350   5333.942556
PE10 -28430.247745  -4038.008841  -7179.096377   -499.607352
PE11 -24541.939848   3259.337799 -16212.944161   4269.685258
PE12 -27558.986615 -10471.388616   2501.743686   4721.384658
PE13  24934.593447  -2793.498864  15722.759278    427.157860
PE14  22585.750770   3573.781166 -17777.189933  -1772.651426
PE15  27566.927554  10469.397212  -2641.460194    758.735018
PE18 -26214.448615  11099.083049   4293.388116  -1702.654482
PE19  -1164.324385 -19654.110318 -22096.342257  -1053.423029
PE21   3798.627937 -26128.324280 -13397.513830   -721.619192
PE25  -3973.145236  25981.073016  13604.318198   -566.249233
PE26   6673.128259 -14874.085341  24713.815179   -894.130915
PE27  14757.208327  -9100.158724 -23996.337853   -249.592647
PE30  16755.023138  14273.516825 -19796.360975   -335.857802
PE31 -16949.308959 -13164.562474  20391.237807   -493.299726
PE33 -13909.073567 -17511.207159  19392.398964   -458.718352
PE34  14162.326978  17465.230934 -19251.705697   -505.914533
PE36  -7659.181697  14334.299417 -24731.569925   -343.079176
PG01  22031.745258  14447.149510  -4913.965478    412.719765
PG02  -4339.855436 -16948.518910  20607.153292   -652.050804
PG03  12669.731477  16323.751205  16647.061134   -156.303625
PG04  15947.114284   6566.442760  20227.889432   -184.710118
PG05  -5569.555535 -25666.254232  -3524.056634    -74.120967
PG06  12477.540291  -9716.489628  21421.801784    226.159081
PG07  24477.705840   4127.110272  -9719.355456    315.149990
PG08   6640.200902  13771.001471 -21723.503476    -59.231126
PG09  22333.848372  -3997.314367  13765.278324   -350.577686
PG10 -11938.923187  13735.145252 -19094.933572   -342.276394
PG11  -2734.018901 -17330.008302  19943.038536    -66.459432
PG12 -10012.136024 -19829.832653  14387.254400   -182.515437
PG13   2927.618440 -17063.255312 -20247.682566    274.260306
PG14  13181.607221 -12675.152088 -19242.340203    -92.273619
PG15  -9191.641795 -13260.997053 -21488.927035    -77.997238
PG16   -199.787812  26302.269770   -136.298992   -478.816253
PG17  22456.204674 -14225.238974    948.878510    585.182258
PG18 -24119.785928  -4064.728553 -10480.618085    223.411170
PG19  19319.584498 -16278.714734   7619.459831    128.957087
PG20  -1106.134239 -25799.874337   6743.413451    516.369278
PG21  16462.477100  16119.041900 -13092.659367    159.176846
PG22 -16282.513560  18056.950854  10869.192042    225.118118
PG23 -14997.897195   1524.888499 -21877.899605     -5.470060
PG24 -20294.342033 -15041.909517  -9146.564763    269.386121
PG25 -15085.970869  -6885.641348  20520.202218    296.158216
PG26  -5979.558827  22643.580138  12146.003494    189.528885
PG27  -5284.221477  18653.534452 -18170.421544    148.573765
PG28   9527.467268 -20622.229044 -13429.562746    383.910010
PG29 -21643.206905    728.845015  15370.763947   -489.479418
PG30  20583.539832  -3317.539073 -16518.769591   -517.831665
PG31 -10758.363050  11464.052596  21331.401218   -168.218985
PG32 -19933.916907  17041.118474   3626.421119    -81.788024
PJ01 -28061.348511  30618.373330  -2687.311502    207.311894
PJ02 -26322.741537  24214.916177  27276.811994     -1.860624
PJ03 -33830.703593  17451.171135 -13512.288861     -0.901130
PR01  14557.974312 -19511.358041   7602.959292      7.209157
PR02   5912.200966 -21709.221433 -12032.555342    512.024105
PR03  -6173.298385 -10610.520347 -22320.464477     52.830358
PR04 -14396.746936   6338.634779 -20045.676766    131.193902
PR05 -14829.598966  19639.031307  -6652.709027     89.086489
PR07   6715.403835   9875.581303  22575.423937     32.480905
PR08  14534.560277  -6421.923835  20022.417708    -63.942316
PR09   6980.127263  21854.944801  11238.001525     43.517637
PR11  14991.347074   6776.123496 -19491.702710     43.928978
PR12   5673.014337 -11183.772010 -22197.349006     17.396198
PR13  -6220.094935 -21446.460479 -12356.182860    -19.246174
PR14 -15220.226992 -19550.569433   6045.841377     75.224661
PR15 -14775.590708  -6151.348886  19875.857296     97.653420
PR17 -17924.580479  -7421.741348  16589.038820    508.226499
PR18 -25440.520172   -590.946550   1239.199069    109.798057
PR19 -20583.767618   5627.009288 -13970.244483   -180.988935
PR20  -1035.737165  10297.000220 -23303.655143    -66.428423
PR21  18977.319986   6969.071607 -15541.728069   -284.060053
PR22  25560.514884    330.028549   -307.727856   -169.597789
PR24     66.285139 -10814.001630  23120.175511     83.660781
EOF
